{"type": "FeatureCollection", "features": [ {"type": "Feature", "properties": {"norad_id": 30516, "name": "FENGYUN 1C DEB", "group": "fengyun-1c-debris", "lat": 14.823256743313392, "lon": 99.9163455145844, "alt_km": 757.730330409513, "timestamp": "2025-12-23T20:42:37.352813+00:00", "meta": {"OBJECT_NAME": "FENGYUN 1C DEB", "OBJECT_ID": "1999-025AJE", "EPOCH": "2025-12-23T05:47:14.634240", "MEAN_MOTION": 14.41472338, "ECCENTRICITY": 0.00101159, "INCLINATION": 98.8571, "RA_OF_ASC_NODE": 101.6371, "ARG_OF_PERICENTER": 259.6982, "MEAN_ANOMALY": 130.4945, "EPHEMERIS_TYPE": 0, "CLASSIFICATION_TYPE": "U", "NORAD_CAT_ID": 30516, "ELEMENT_SET_NO": 999, "REV_AT_EPOCH": 97866, "BSTAR": 0.0022878149, "MEAN_MOTION_DOT": 7.389e-05, "MEAN_MOTION_DDOT": 0}, "tle": {"line1": "1 30516U 99025AJE 25357.24114160  .00007389  00000+0  22878-2 0  9996", "line2": "2 30516  98.8571 101.6371 0010115 259.6982 130.4945 14.41472338978662"}}, "geometry": {"type": "Point", "coordinates": [99.9163455145844, 14.823256743313392]}}, {"type": "Feature", "properties": {"norad_id": 30520, "name": "FENGYUN 1C DEB", "group": "fengyun-1c-debris", "lat": 6.902571816457708, "lon": -6.6579762438225725, "alt_km": 540.9009981995287, "timestamp": "2025-12-23T20:42:37.352823+00:00", "meta": {"OBJECT_NAME": "FENGYUN 1C DEB", "OBJECT_ID": "1999-025AJJ", "EPOCH": "2025-12-23T04:05:55.963104", "MEAN_MOTION": 15.14443234, "ECCENTRICITY": 0.00699646, "INCLINATION": 98.7183, "RA_OF_ASC_NODE": 171.4853, "ARG_OF_PERICENTER": 65.2056, "MEAN_ANOMALY": 295.6429, "EPHEMERIS_TYPE": 0, "CLASSIFICATION_TYPE": "U", "NORAD_CAT_ID": 30520, "ELEMENT_SET_NO": 999, "REV_AT_EPOCH": 1199, "BSTAR": 0.0010167392, "MEAN_MOTION_DOT": 0.00019822, "MEAN_MOTION_DDOT": 0}, "tle": {"line1": "1 30520U 99025AJJ 25357.17078661  .00019822  00000+0  10167-2 0  9991", "line2": "2 30520  98.7183 171.4853 0069964  65.2056 295.6429 15.14443234 11993"}}, "geometry": {"type": "Point", "coordinates": [-6.6579762438225725, 6.902571816457708]}}, {"type": "Feature", "properties": {"norad_id": 30521, "name": "FENGYUN 1C DEB", "group": "fengyun-1c-debris", "lat": -76.47107716290219, "lon": -87.13919993268057, "alt_km": 643.325593997899, "timestamp": "2025-12-23T20:42:37.352833+00:00", "meta": {"OBJECT_NAME": "FENGYUN 1C DEB", "OBJECT_ID": "1999-025AJK", "EPOCH": "2025-12-23T03:03:26.728416", "MEAN_MOTION": 14.58333033, "ECCENTRICITY": 0.0135818, "INCLINATION": 98.9893, "RA_OF_ASC_NODE": 133.2052, "ARG_OF_PERICENTER": 212.0343, "MEAN_ANOMALY": 147.2547, "EPHEMERIS_TYPE": 0, "CLASSIFICATION_TYPE": "U", "NORAD_CAT_ID": 30521, "ELEMENT_SET_NO": 999, "REV_AT_EPOCH": 99733, "BSTAR": 0.00093296658, "MEAN_MOTION_DOT": 4.845e-05, "MEAN_MOTION_DDOT": 0}, "tle": {"line1": "1 30521U 99025AJK 25357.12739269  .00004845  00000+0  93297-3 0  9990", "line2": "2 30521  98.9893 133.2052 0135818 212.0343 147.2547 14.58333033997330"}}, "geometry": {"type": "Point", "coordinates": [-87.13919993268057, -76.47107716290219]}}, {"type": "Feature", "properties": {"norad_id": 30523, "name": "FENGYUN 1C DEB", "group": "fengyun-1c-debris", "lat": 31.24140321582062, "lon": -29.31479184980676, "alt_km": 669.1968018937177, "timestamp": "2025-12-23T20:42:37.352843+00:00", "meta": {"OBJECT_NAME": "FENGYUN 1C DEB", "OBJECT_ID": "1999-025AJM", "EPOCH": "2025-12-23T04:19:43.055616", "MEAN_MOTION": 14.27943801, "ECCENTRICITY": 0.02441731, "INCLINATION": 98.4669, "RA_OF_ASC_NODE": 335.207, "ARG_OF_PERICENTER": 77.9569, "MEAN_ANOMALY": 48.8658, "EPHEMERIS_TYPE": 0, "CLASSIFICATION_TYPE": "U", "NORAD_CAT_ID": 30523, "ELEMENT_SET_NO": 999, "REV_AT_EPOCH": 98249, "BSTAR": 0.00020261611, "MEAN_MOTION_DOT": 6.43e-06, "MEAN_MOTION_DDOT": 0}, "tle": {"line1": "1 30523U 99025AJM 25357.18035944  .00000643  00000+0  20262-3 0  9991", "line2": "2 30523  98.4669 335.2070 0244173  77.9569  48.8658 14.27943801982491"}}, "geometry": {"type": "Point", "coordinates": [-29.31479184980676, 31.24140321582062]}}, {"type": "Feature", "properties": {"norad_id": 30524, "name": "FENGYUN 1C DEB", "group": "fengyun-1c-debris", "lat": 9.964327074868889, "lon": 168.3760702778729, "alt_km": 1052.3295313474973, "timestamp": "2025-12-23T20:42:37.352854+00:00", "meta": {"OBJECT_NAME": "FENGYUN 1C DEB", "OBJECT_ID": "1999-025AJN", "EPOCH": "2025-12-22T10:10:01.098912", "MEAN_MOTION": 13.92333536, "ECCENTRICITY": 0.02069637, "INCLINATION": 99.3047, "RA_OF_ASC_NODE": 168.5808, "ARG_OF_PERICENTER": 223.7642, "MEAN_ANOMALY": 134.6953, "EPHEMERIS_TYPE": 0, "CLASSIFICATION_TYPE": "U", "NORAD_CAT_ID": 30524, "ELEMENT_SET_NO": 999, "REV_AT_EPOCH": 94020, "BSTAR": 0.0053682831, "MEAN_MOTION_DOT": 8.177e-05, "MEAN_MOTION_DDOT": 0}, "tle": {"line1": "1 30524U 99025AJN 25356.42362383  .00008177  00000+0  53683-2 0  9990", "line2": "2 30524  99.3047 168.5808 0206963 223.7642 134.6953 13.92333536940200"}}, "geometry": {"type": "Point", "coordinates": [168.3760702778729, 9.964327074868889]}}, {"type": "Feature", "properties": {"norad_id": 30525, "name": "FENGYUN 1C DEB", "group": "fengyun-1c-debris", "lat": -15.735540268747357, "lon": -115.94506274140713, "alt_km": 943.7815295052296, "timestamp": "2025-12-23T20:42:37.352864+00:00", "meta": {"OBJECT_NAME": "FENGYUN 1C DEB", "OBJECT_ID": "1999-025AJP", "EPOCH": "2025-12-18T15:18:01.895616", "MEAN_MOTION": 13.58621536, "ECCENTRICITY": 0.02931758, "INCLINATION": 98.6028, "RA_OF_ASC_NODE": 237.0204, "ARG_OF_PERICENTER": 294.1589, "MEAN_ANOMALY": 62.9159, "EPHEMERIS_TYPE": 0, "CLASSIFICATION_TYPE": "U", "NORAD_CAT_ID": 30525, "ELEMENT_SET_NO": 999, "REV_AT_EPOCH": 93197, "BSTAR": 0.0010827558, "MEAN_MOTION_DOT": 1.008e-05, "MEAN_MOTION_DDOT": 0}, "tle": {"line1": "1 30525U 99025AJP 25352.63752194  .00001008  00000+0  10828-2 0  9993", "line2": "2 30525  98.6028 237.0204 0293175 294.1589  62.9159 13.58621536931974"}}, "geometry": {"type": "Point", "coordinates": [-115.94506274140713, -15.735540268747357]}}, {"type": "Feature", "properties": {"norad_id": 30526, "name": "FENGYUN 1C DEB", "group": "fengyun-1c-debris", "lat": -14.592029469425693, "lon": 82.19380362892211, "alt_km": 1142.6820923250307, "timestamp": "2025-12-23T20:42:37.352875+00:00", "meta": {"OBJECT_NAME": "FENGYUN 1C DEB", "OBJECT_ID": "1999-025AJQ", "EPOCH": "2025-12-23T04:46:33.753792", "MEAN_MOTION": 13.49926844, "ECCENTRICITY": 0.03067368, "INCLINATION": 99.5473, "RA_OF_ASC_NODE": 79.0456, "ARG_OF_PERICENTER": 238.5956, "MEAN_ANOMALY": 118.4844, "EPHEMERIS_TYPE": 0, "CLASSIFICATION_TYPE": "U", "NORAD_CAT_ID": 30526, "ELEMENT_SET_NO": 999, "REV_AT_EPOCH": 92799, "BSTAR": 0.0011654088, "MEAN_MOTION_DOT": 9.47e-06, "MEAN_MOTION_DDOT": 0}, "tle": {"line1": "1 30526U 99025AJQ 25357.19900178  .00000947  00000+0  11654-2 0  9996", "line2": "2 30526  99.5473  79.0456 0306736 238.5956 118.4844 13.49926844927995"}}, "geometry": {"type": "Point", "coordinates": [82.19380362892211, -14.592029469425693]}}, {"type": "Feature", "properties": {"norad_id": 30527, "name": "FENGYUN 1C DEB", "group": "fengyun-1c-debris", "lat": -37.82980387232938, "lon": -146.90909420368993, "alt_km": 852.409463988708, "timestamp": "2025-12-23T20:42:37.352885+00:00", "meta": {"OBJECT_NAME": "FENGYUN 1C DEB", "OBJECT_ID": "1999-025AJR", "EPOCH": "2025-12-22T08:13:27.591744", "MEAN_MOTION": 13.31053897, "ECCENTRICITY": 0.04136442, "INCLINATION": 100.063, "RA_OF_ASC_NODE": 39.5265, "ARG_OF_PERICENTER": 203.7375, "MEAN_ANOMALY": 292.1241, "EPHEMERIS_TYPE": 0, "CLASSIFICATION_TYPE": "U", "NORAD_CAT_ID": 30527, "ELEMENT_SET_NO": 999, "REV_AT_EPOCH": 91484, "BSTAR": 0.0013485819, "MEAN_MOTION_DOT": 9.85e-06, "MEAN_MOTION_DDOT": 0}, "tle": {"line1": "1 30527U 99025AJR 25356.34268046  .00000985  00000+0  13486-2 0  9991", "line2": "2 30527 100.0630  39.5265 0413644 203.7375 292.1241 13.31053897914845"}}, "geometry": {"type": "Point", "coordinates": [-146.90909420368993, -37.82980387232938]}}, {"type": "Feature", "properties": {"norad_id": 30528, "name": "FENGYUN 1C DEB", "group": "fengyun-1c-debris", "lat": -81.69947564020406, "lon": -36.57238732197005, "alt_km": 827.0757104108397, "timestamp": "2025-12-23T20:42:37.352896+00:00", "meta": {"OBJECT_NAME": "FENGYUN 1C DEB", "OBJECT_ID": "1999-025AJS", "EPOCH": "2025-12-23T03:14:01.779648", "MEAN_MOTION": 14.13507475, "ECCENTRICITY": 0.01439093, "INCLINATION": 98.2372, "RA_OF_ASC_NODE": 225.9216, "ARG_OF_PERICENTER": 195.7453, "MEAN_ANOMALY": 328.295, "EPHEMERIS_TYPE": 0, "CLASSIFICATION_TYPE": "U", "NORAD_CAT_ID": 30528, "ELEMENT_SET_NO": 999, "REV_AT_EPOCH": 97284, "BSTAR": 0.00028532631, "MEAN_MOTION_DOT": 5.54e-06, "MEAN_MOTION_DDOT": 0}, "tle": {"line1": "1 30528U 99025AJS 25357.13474282  .00000554  00000+0  28533-3 0  9993", "line2": "2 30528  98.2372 225.9216 0143909 195.7453 328.2950 14.13507475972844"}}, "geometry": {"type": "Point", "coordinates": [-36.57238732197005, -81.69947564020406]}}, {"type": "Feature", "properties": {"norad_id": 30529, "name": "FENGYUN 1C DEB", "group": "fengyun-1c-debris", "lat": -76.30469209813742, "lon": 60.67872836758431, "alt_km": 930.4088918067291, "timestamp": "2025-12-23T20:42:37.352906+00:00", "meta": {"OBJECT_NAME": "FENGYUN 1C DEB", "OBJECT_ID": "1999-025AJT", "EPOCH": "2025-12-13T17:51:26.012448", "MEAN_MOTION": 13.71609854, "ECCENTRICITY": 0.02304788, "INCLINATION": 98.487, "RA_OF_ASC_NODE": 269.5039, "ARG_OF_PERICENTER": 219.6089, "MEAN_ANOMALY": 138.8027, "EPHEMERIS_TYPE": 0, "CLASSIFICATION_TYPE": "U", "NORAD_CAT_ID": 30529, "ELEMENT_SET_NO": 999, "REV_AT_EPOCH": 94022, "BSTAR": 0.00122315, "MEAN_MOTION_DOT": 1.295e-05, "MEAN_MOTION_DDOT": 0}, "tle": {"line1": "1 30529U 99025AJT 25347.74405107  .00001295  00000+0  12232-2 0  9991", "line2": "2 30529  98.4870 269.5039 0230478 219.6089 138.8027 13.71609854940220"}}, "geometry": {"type": "Point", "coordinates": [60.67872836758431, -76.30469209813742]}}]}